ICEYE-X43               
1 60539U 24149BZ  25277.76738919  .00007728  00000+0  66267-3 0  9999
2 60539  97.7064 353.1369 0003265 167.6964 192.4338 14.97783006 61858
HAWK-10A                
1 60540U 24149CA  25277.79722916  .00003287  00000+0  30330-3 0  9992
2 60540  97.7160 352.9356 0003241 187.6923 172.4249 14.95324504 61807
UMBRA-09                
1 60541U 24149CB  25276.19362447  .00028780  00000+0  18701-2 0  9997
2 60541  97.7165 355.6385 0001532 162.5924 197.5356 15.07971235 61854
QPS-SAR-8 (AMATERU-IV)  
1 60542U 24149CC  25277.65715014  .00009681  00000+0  77333-3 0  9998
2 60542  97.7080 354.2292 0005516 235.2360 124.8345 15.00450479 61903
ARCTIC WEATHER SATELLITE
1 60543U 24149CD  25277.72707544  .00002117  00000+0  22620-3 0  9992
2 60543  97.7098 350.0843 0001373 195.4792 164.6384 14.89806340 61264
CAPELLA-15 (ACADIA-5)   
1 60544U 24149CE  25276.20105801  .00017447  00000+0  17025-2 0  9997
2 60544  97.7060 350.1270 0004374 212.9353 147.1594 14.92476466 61525
HAWK-10B                
1 60545U 24149CF  25277.79706273  .00003200  00000+0  29536-3 0  9996
2 60545  97.7084 352.5399 0004728 216.1198 143.9704 14.95324135 61802
ICEYE-X39               
1 60546U 24149CG  25277.79922647  .00007308  00000+0  62938-3 0  9998
2 60546  97.7047 353.2550 0003947 206.3312 153.7710 14.97636093 61863
UMBRA-10                
1 60547U 24149CH  25277.65296969  .00024664  00000+0  16008-2 0  9995
2 60547  97.7175 357.1083 0001816 129.5768 230.5620 15.08048450 62080
ICEYE-X33               
1 60548U 24149CJ  25277.76471948  .00008120  00000+0  67197-3 0  9995
2 60548  97.7099 354.1065 0004129 184.9219 175.1964 14.99145937 61901
ICEYE-X40               
1 60549U 24149CK  25277.76625978  .00003706  00000+0  32889-3 0  9995
2 60549  97.7075 353.2325 0004190 191.8597 168.2526 14.96773074 61856
SATELIOT_1              
1 60550U 24149CL  25277.62581916  .00005274  00000+0  46831-3 0  9999
2 60550  97.7017 352.6764 0006220 197.0617 163.0396 14.96559306 61826
BRO-14                  
1 60551U 24149CM  25277.65255514  .00001898  00000+0  17778-3 0  9991
2 60551  97.7143 352.8134 0005727 223.3682 136.7089 14.95218625 61793
SATELIOT_3              
1 60552U 24149CN  25276.20157742  .00006479  00000+0  57327-3 0  9990
2 60552  97.7078 351.8243 0004975 220.7340 139.3510 14.96616937 61626
BRO-15                  
1 60553U 24149CP  25277.77187066  .00002456  00000+0  22736-3 0  9993
2 60553  97.7073 352.7516 0007137 211.5646 148.5147 14.95408686 61824
UM5-RIBAT               
1 60554U 24149CQ  25276.19101551  .00008985  00000+0  75194-3 0  9993
2 60554  97.7029 352.1757 0007312 208.3500 151.7325 14.98665023 61664
UM5-EOSAT               
1 60555U 24149CR  25277.76550063  .00008425  00000+0  69657-3 0  9990
2 60555  97.7104 354.2959 0007148 198.9489 161.1469 14.99156717 61911
LASARSAT                
1 62391U 24247Q   25275.99967441  .00037809  00000+0  12797-2 0  9994
2 62391  44.9793 249.6805 0006227   8.1364 351.9620 15.30016945 43717
CROCUBE                 
1 62394U 24247T   25277.60520624  .00034972  00000+0  11660-2 0  9991
2 62394  44.9760 240.4860 0006940  29.2019 330.9252 15.30531718 43962
TEVEL2-4                
1 63213U 25052D   25277.64020772  .00025608  00000+0  10634-2 0  9996
2 63213  97.4149 170.1097 0001524 349.4279  10.6925 15.23811860 31053
TEVEL2-5                
1 63214U 25052E   25277.64304282  .00025637  00000+0  10660-2 0  9999
2 63214  97.4146 170.1067 0001501 346.6149  13.5048 15.23766327 31053
TEVEL2-6                
1 63215U 25052F   25276.26915880  .00034940  00000+0  14546-2 0  9993
2 63215  97.4150 168.7397 0001776 351.2741   8.8465 15.23659097 30843
TEVEL2-1                
1 63217U 25052H   25276.23255424  .00034474  00000+0  14468-2 0  9998
2 63217  97.4128 168.5705 0002551   4.5683 355.5577 15.23388008 30832
TEVEL2-3                
1 63218U 25052J   25276.23249967  .00034129  00000+0  14319-2 0  9996
2 63218  97.4133 168.5734 0002661   7.2951 352.8324 15.23397992 30833
TEVEL2-2                
1 63219U 25052K   25277.67835089  .00024297  00000+0  10200-2 0  9992
2 63219  97.4126 169.9985 0002373 359.3514   0.7719 15.23453198 31058
TEVEL2-9                
1 63237U 25052AD  25277.44592683  .00024877  00000+0  10859-2 0  9991
2 63237  97.4194 169.5649 0006652 344.9415  15.1622 15.22106531 30990
TEVEL2-7                
1 63238U 25052AE  25277.45411764  .00024616  00000+0  10778-2 0  9994
2 63238  97.4193 169.5587 0006748 344.4297  15.6730 15.22003003 30995
TEVEL2-8                
1 63239U 25052AF  25276.14354288  .00031869  00000+0  13967-2 0  9998
2 63239  97.4192 168.2535 0006947 350.1363   9.9736 15.21913455 30793
HADES-ICM               
1 63492U 25052BN  25276.65580020  .00071831  00000+0  24509-2 0  9997
2 63492  97.4143 169.8793 0008836 344.3674  15.7292 15.30025528 30957
